{"fetched_at":"2026-03-29T02:12:04Z","count":15717,"tles":[{"name":"SKIF-D","line1":"1 54153U 22139D   26086.91455118  .00000054  00000+0  00000+0 0  9998","line2":"2 54153  89.9555  96.6962 0007438 230.2468 129.7466  5.00428374 60044","category":"Other"}]}