{
  "norad_id": 54153,
  "name": "SKIF-D",
  "history": [
    {
      "epoch": "2026-03-27T21:56:57.221952Z",
      "apogee_km": 8070.608190316713,
      "perigee_km": 8049.130212291656,
      "latitude_deg": -1.6098062795200196e-05,
      "longitude_deg": -57.88905362564463,
      "height_km": 8068.267275216661,
      "semi_major_axis_km": 14438.006201304184,
      "eccentricity": 0.0007438,
      "inclination_deg": 89.9555,
      "raan_deg": 96.6962,
      "arg_perigee_deg": 230.2468,
      "mean_anomaly_deg": 129.7466,
      "mean_motion_rev_day": 5.00428374
    }
  ]
}